[{"OBJECT_NAME":"IRIDIUM 180","OBJECT_ID":"2019-002A","EPOCH":"2026-03-09T22:12:10.971936","MEAN_MOTION":14.34217842,"ECCENTRICITY":0.00022889,"INCLINATION":86.3973,"RA_OF_ASC_NODE":35.0663,"ARG_OF_PERICENTER":84.9653,"MEAN_ANOMALY":275.1804,"EPHEMERIS_TYPE":0,"CLASSIFICATION_TYPE":"U","NORAD_CAT_ID":43922,"ELEMENT_SET_NO":999,"REV_AT_EPOCH":37476,"BSTAR":6.536861e-6,"MEAN_MOTION_DOT":3.8e-7,"MEAN_MOTION_DDOT":0},{"OBJECT_NAME":"CZ-4B DEB","OBJECT_ID":"1999-057KT","EPOCH":"2026-03-09T21:35:24.569088","MEAN_MOTION":14.48761661,"ECCENTRICITY":0.00943778,"INCLINATION":98.5624,"RA_OF_ASC_NODE":139.8184,"ARG_OF_PERICENTER":61.1228,"MEAN_ANOMALY":299.9395,"EPHEMERIS_TYPE":0,"CLASSIFICATION_TYPE":"U","NORAD_CAT_ID":26446,"ELEMENT_SET_NO":999,"REV_AT_EPOCH":35667,"BSTAR":0.00061463731,"MEAN_MOTION_DOT":2.405e-5,"MEAN_MOTION_DDOT":0}]
